[
    {
        "Altitude(m)": 707248.1990818181,
        "Argument of Periapsis(deg)": 0.007973084830638947,
        "Eccentricity": 0.0,
        "Inclination(deg)": 45.0,
        "Latitude(deg)": -17.29606316715092,
        "Longitude(deg)": -38.57457426869873,
        "Mean Anomaly(deg)": -24.654048346763425,
        "RAAN(deg)": 79.99247364097926,
        "Satellite Name": "Constellation 1 372",
        "Satellite Number": 372,
        "Semi-Major Axis(m)": 7083131.272910544,
        "Time(s)": 133
    },
    {
        "Altitude(m)": 707235.7241437266,
        "Argument of Periapsis(deg)": 0.008033032836884352,
        "Eccentricity": 0.0,
        "Inclination(deg)": 45.0,
        "Latitude(deg)": -17.25503776360034,
        "Longitude(deg)": -38.531749222650284,
        "Mean Anomaly(deg)": -24.593347206513503,
        "RAAN(deg)": 79.99241705181367,
        "Satellite Name": "Constellation 1 372",
        "Satellite Number": 372,
        "Semi-Major Axis(m)": 7083131.272910544,
        "Time(s)": 134
    },
    {
        "Altitude(m)": 707223.2601167655,
        "Argument of Periapsis(deg)": 0.008092980843129758,
        "Eccentricity": 0.0,
        "Inclination(deg)": 45.0,
        "Latitude(deg)": -17.214001148291857,
        "Longitude(deg)": -38.48894480160885,
        "Mean Anomaly(deg)": -24.532646066263656,
        "RAAN(deg)": 79.99236046264812,
        "Satellite Name": "Constellation 1 372",
        "Satellite Number": 372,
        "Semi-Major Axis(m)": 7083131.272910544,
        "Time(s)": 135
    },
    {
        "Altitude(m)": 707210.807039978,
        "Argument of Periapsis(deg)": 0.008152928849375162,
        "Eccentricity": 0.0,
        "Inclination(deg)": 45.0,
        "Latitude(deg)": -17.17295335387406,
        "Longitude(deg)": -38.44616094975252,
        "Mean Anomaly(deg)": -24.471944926013744,
        "RAAN(deg)": 79.99230387348256,
        "Satellite Name": "Constellation 1 372",
        "Satellite Number": 372,
        "Semi-Major Axis(m)": 7083131.272910544,
        "Time(s)": 136
    },
    {
        "Altitude(m)": 707198.3649523591,
        "Argument of Periapsis(deg)": 0.008212876855620568,
        "Eccentricity": 0.0,
        "Inclination(deg)": 45.0,
        "Latitude(deg)": -17.13189441295578,
        "Longitude(deg)": -38.40339761128971,
        "Mean Anomaly(deg)": -24.41124378576383,
        "RAAN(deg)": 79.99224728431697,
        "Satellite Name": "Constellation 1 372",
        "Satellite Number": 372,
        "Semi-Major Axis(m)": 7083131.272910544,
        "Time(s)": 137
    },
    {
        "Altitude(m)": 707185.933892846,
        "Argument of Periapsis(deg)": 0.008272824861865974,
        "Eccentricity": 0.0,
        "Inclination(deg)": 45.0,
        "Latitude(deg)": -17.09082435810589,
        "Longitude(deg)": -38.36065473045894,
        "Mean Anomaly(deg)": -24.350542645513922,
        "RAAN(deg)": 79.99219069515141,
        "Satellite Name": "Constellation 1 372",
        "Satellite Number": 372,
        "Semi-Major Axis(m)": 7083131.272910544,
        "Time(s)": 138
    },
    {
        "Altitude(m)": 707173.5139003128,
        "Argument of Periapsis(deg)": 0.00833277286811138,
        "Eccentricity": 0.0,
        "Inclination(deg)": 45.0,
        "Latitude(deg)": -17.049743221853596,
        "Longitude(deg)": -38.31793225152896,
        "Mean Anomaly(deg)": -24.289841505264064,
        "RAAN(deg)": 79.99213410598584,
        "Satellite Name": "Constellation 1 372",
        "Satellite Number": 372,
        "Semi-Major Axis(m)": 7083131.272910544,
        "Time(s)": 139
    },
    {
        "Altitude(m)": 707161.1050135769,
        "Argument of Periapsis(deg)": 0.008392720874356788,
        "Eccentricity": 0.0,
        "Inclination(deg)": 45.0,
        "Latitude(deg)": -17.0086510366884,
        "Longitude(deg)": -38.275230118798575,
        "Mean Anomaly(deg)": -24.229140365014153,
        "RAAN(deg)": 79.99207751682026,
        "Satellite Name": "Constellation 1 372",
        "Satellite Number": 372,
        "Semi-Major Axis(m)": 7083131.272910544,
        "Time(s)": 140
    },
    {
        "Altitude(m)": 707148.7072714082,
        "Argument of Periapsis(deg)": 0.008452668880602192,
        "Eccentricity": 0.0,
        "Inclination(deg)": 45.0,
        "Latitude(deg)": -16.967547835060632,
        "Longitude(deg)": -38.232548444694046,
        "Mean Anomaly(deg)": -24.168439224764242,
        "RAAN(deg)": 79.99202092765469,
        "Satellite Name": "Constellation 1 372",
        "Satellite Number": 372,
        "Semi-Major Axis(m)": 7083131.272910544,
        "Time(s)": 141
    },
    {
        "Altitude(m)": 707136.3207125044,
        "Argument of Periapsis(deg)": 0.008512616886847598,
        "Eccentricity": 0.0,
        "Inclination(deg)": 45.0,
        "Latitude(deg)": -16.926433649380495,
        "Longitude(deg)": -38.18988683738051,
        "Mean Anomaly(deg)": -24.107738084514327,
        "RAAN(deg)": 79.99196433848913,
        "Satellite Name": "Constellation 1 372",
        "Satellite Number": 372,
        "Semi-Major Axis(m)": 7083131.272910544,
        "Time(s)": 142
    },
    {
        "Altitude(m)": 707123.9453755113,
        "Argument of Periapsis(deg)": 0.008572564893093004,
        "Eccentricity": 0.0,
        "Inclination(deg)": 45.0,
        "Latitude(deg)": -16.885308512019687,
        "Longitude(deg)": -38.147245409344606,
        "Mean Anomaly(deg)": -24.047036944264477,
        "RAAN(deg)": 79.99190774932356,
        "Satellite Name": "Constellation 1 372",
        "Satellite Number": 372,
        "Semi-Major Axis(m)": 7083131.272910544,
        "Time(s)": 143
    },
    {
        "Altitude(m)": 707111.5812990218,
        "Argument of Periapsis(deg)": 0.008632512899338408,
        "Eccentricity": 0.0,
        "Inclination(deg)": 45.0,
        "Latitude(deg)": -16.84417245531032,
        "Longitude(deg)": -38.10462410500597,
        "Mean Anomaly(deg)": -23.986335804014512,
        "RAAN(deg)": 79.99185116015799,
        "Satellite Name": "Constellation 1 372",
        "Satellite Number": 372,
        "Semi-Major Axis(m)": 7083131.272910544,
        "Time(s)": 144
    },
    {
        "Altitude(m)": 707099.2285215604,
        "Argument of Periapsis(deg)": 0.008692460905583814,
        "Eccentricity": 0.0,
        "Inclination(deg)": 45.0,
        "Latitude(deg)": -16.80302551154572,
        "Longitude(deg)": -38.06202286881471,
        "Mean Anomaly(deg)": -23.92563466376465,
        "RAAN(deg)": 79.99179457099243,
        "Satellite Name": "Constellation 1 372",
        "Satellite Number": 372,
        "Semi-Major Axis(m)": 7083131.272910544,
        "Time(s)": 145
    },
    {
        "Altitude(m)": 707086.8870816004,
        "Argument of Periapsis(deg)": 0.00875240891182922,
        "Eccentricity": 0.0,
        "Inclination(deg)": 45.0,
        "Latitude(deg)": -16.761867712980077,
        "Longitude(deg)": -38.0194416452509,
        "Mean Anomaly(deg)": -23.864933523514793,
        "RAAN(deg)": 79.99173798182684,
        "Satellite Name": "Constellation 1 372",
        "Satellite Number": 372,
        "Semi-Major Axis(m)": 7083131.272910544,
        "Time(s)": 146
    },
    {
        "Altitude(m)": 707074.5570175519,
        "Argument of Periapsis(deg)": 0.008812356918074627,
        "Eccentricity": 0.0,
        "Inclination(deg)": 45.0,
        "Latitude(deg)": -16.7206990918288,
        "Longitude(deg)": -37.97688037882498,
        "Mean Anomaly(deg)": -23.80423238326489,
        "RAAN(deg)": 79.99168139266128,
        "Satellite Name": "Constellation 1 372",
        "Satellite Number": 372,
        "Semi-Major Axis(m)": 7083131.272910544,
        "Time(s)": 147
    },
    {
        "Altitude(m)": 707062.2383677744,
        "Argument of Periapsis(deg)": 0.008872304924320031,
        "Eccentricity": 0.0,
        "Inclination(deg)": 45.0,
        "Latitude(deg)": -16.679519680268804,
        "Longitude(deg)": -37.934339182174696,
        "Mean Anomaly(deg)": -23.743531243014925,
        "RAAN(deg)": 79.99162480349571,
        "Satellite Name": "Constellation 1 372",
        "Satellite Number": 372,
        "Semi-Major Axis(m)": 7083131.272910544,
        "Time(s)": 148
    },
    {
        "Altitude(m)": 707049.9311705583,
        "Argument of Periapsis(deg)": 0.008932252930565437,
        "Eccentricity": 0.0,
        "Inclination(deg)": 45.0,
        "Latitude(deg)": -16.638329510437842,
        "Longitude(deg)": -37.89181766367673,
        "Mean Anomaly(deg)": -23.68283010276501,
        "RAAN(deg)": 79.99156821433014,
        "Satellite Name": "Constellation 1 372",
        "Satellite Number": 372,
        "Semi-Major Axis(m)": 7083131.272910544,
        "Time(s)": 149
    },
    {
        "Altitude(m)": 707037.6354641388,
        "Argument of Periapsis(deg)": 0.008992200936810843,
        "Eccentricity": 0.0,
        "Inclination(deg)": 45.0,
        "Latitude(deg)": -16.597128614435757,
        "Longitude(deg)": -37.84931593602929,
        "Mean Anomaly(deg)": -23.62212896251515,
        "RAAN(deg)": 79.99151162516458,
        "Satellite Name": "Constellation 1 372",
        "Satellite Number": 372,
        "Semi-Major Axis(m)": 7083131.272910544,
        "Time(s)": 150
    },
    {
        "Altitude(m)": 707025.3512866896,
        "Argument of Periapsis(deg)": 0.009052148943056249,
        "Eccentricity": 0.0,
        "Inclination(deg)": 45.0,
        "Latitude(deg)": -16.555917024323776,
        "Longitude(deg)": -37.80683394386364,
        "Mean Anomaly(deg)": -23.5614278222653,
        "RAAN(deg)": 79.99145503599901,
        "Satellite Name": "Constellation 1 372",
        "Satellite Number": 372,
        "Semi-Major Axis(m)": 7083131.272910544,
        "Time(s)": 151
    }
]